STARLINK-36545          
1 67505U 26012N   26046.58335648 -.01849448  00000+0 -49125-1 0  9995
2 67505  43.0005  79.1154 0000833 272.5226  44.5875 15.40788649  5521
STARLINK-36553          
1 67506U 26012P   26046.58335648 -.01814531  00000+0 -50091-1 0  9995
2 67506  42.9996  79.0414 0001498 269.9130  77.1039 15.39565757  5524
STARLINK-36521          
1 67507U 26012Q   26046.58335648 -.01880443  00000+0 -51226-1 0  9992
2 67507  42.9991  79.0195 0001639 275.5499  80.1775 15.40082571  5525
STARLINK-36526          
1 67508U 26012R   26046.58335648 -.01850015  00000+0 -49084-1 0  9994
2 67508  42.9999  78.9891 0001636 274.1583  93.4271 15.40817249  5527
STARLINK-36541          
1 67509U 26012S   26045.42889574  .00071950  00000+0  12184-2 0  9991
2 67509  42.9986  86.7186 0000543 353.0224   7.0629 15.50639519  4196
STARLINK-36549          
1 67510U 26012T   26046.58335648 -.01806508  00000+0 -52081-1 0  9996
2 67510  42.9999  78.9241 0001573 270.1156 120.8180 15.38238316  5467
STARLINK-36540          
1 67511U 26012U   26045.49165125  .00095249  00000+0  16087-2 0  9993
2 67511  43.0023  86.3251 0003376 283.9420  76.1065 15.50592337  4207
STARLINK-36538          
1 67512U 26012V   26046.58335648 -.01716468  00000+0 -60235-1 0  9993
2 67512  43.0001  79.5036 0001497 299.6376 218.0113 15.31975311  5528
STARLINK-36531          
1 67513U 26012W   26046.58335648 -.01801596  00000+0 -60669-1 0  9992
2 67513  42.9996  79.3811 0001100 301.0121 266.8403 15.33440007  5463
STARLINK-36530          
1 67514U 26012X   26046.58335648 -.01824678  00000+0 -59333-1 0  9995
2 67514  43.0001  79.3900 0001100 297.5211 266.4727 15.34576535  5463
STARLINK-36543          
1 67515U 26012Y   26046.58335648 -.01816930  00000+0 -56843-1 0  9991
2 67515  43.0006  79.4051 0001178 298.1306 259.8189 15.35757928  5460
STARLINK-36537          
1 67516U 26012Z   26046.58335648 -.01803289  00000+0 -56211-1 0  9994
2 67516  43.0002  79.2328 0001021 276.7304 350.4377 15.35846450  5465
